{"type":"FeatureCollection","features":[

{"type":"Feature","geometry":{"type":"Point","coordinates":[139.1620,35.4757]},"properties":{"layer":"danger","kind":"official","title":"神奈川県ツキノワグマ情報（公式）","date":"2026-08-22","summary":"県の公式目撃情報一覧を開く（丹沢一円）","source_url":"https://www.pref.kanagawa.jp/docs/t4i/cnt/f3813/index.html","area":"tanzawa"}},
{"type":"Feature","geometry":{"type":"Point","coordinates":[139.1241,35.4057]},"properties":{"layer":"danger","kind":"sighting","title":"クマ目撃：松田町寄・立山橋付近","date":"2026-08-17","summary":"8/17 13時頃 県道710号立山橋付近で目撃","source_url":"https://town.matsuda.kanagawa.jp/soshiki/9/bear-sight.html","area":"tanzawa"}},
{"type":"Feature","geometry":{"type":"Point","coordinates":[139.2764,35.4823]},"properties":{"layer":"danger","kind":"sighting","title":"クマ目撃：清川村法論堂","date":"2026-08-10","summary":"8/10 19時過ぎ 法論堂地区で目撃。音の出る物を携帯","source_url":"https://www.town.kiyokawa.kanagawa.jp/soshiki/kennou/nourin/bird/235.html","area":"tanzawa"}},
{"type":"Feature","geometry":{"type":"Point","coordinates":[139.2623,35.4843]},"properties":{"layer":"danger","kind":"sighting","title":"クマ目撃：清川村上煤ヶ谷","date":"2026-08-03","summary":"8/3 18時台 上煤ヶ谷バス停付近で目撃","source_url":"https://www.town.kiyokawa.kanagawa.jp/soshiki/kennou/nourin/bird/235.html","area":"tanzawa"}},
{"type":"Feature","geometry":{"type":"Point","coordinates":[139.2700,35.4650]},"properties":{"layer":"danger","kind":"trace","title":"痕跡・目撃多発帯：煤ヶ谷〜法論堂林道","date":"2026-05-30","summary":"5月に林道・登山道クサリ場でも確認。最新は村ページで","source_url":"https://www.town.kiyokawa.kanagawa.jp/soshiki/kennou/nourin/bird/235.html","area":"tanzawa"}},

{"type":"Feature","geometry":{"type":"Point","coordinates":[139.0960,35.8090]},"properties":{"layer":"danger","kind":"official","title":"TOKYOくまっぷ（東京都公式）","date":"2026-08-22","summary":"都の公式目撃マップを開く（奥多摩一円）","source_url":"https://www.kankyo.metro.tokyo.lg.jp/nature/animals_plants/bear/witness","area":"okutama"}},
{"type":"Feature","geometry":{"type":"Point","coordinates":[139.0572,35.7969]},"properties":{"layer":"danger","kind":"attack","title":"人身被害：奥多摩町境の林道","date":"2026-05-17","summary":"5/17 登山中の男性がクマに襲われ重傷","source_url":"https://www.town.okutama.tokyo.jp/1/kankosangyoka/sangyoshinko/2/1/1079.html","area":"okutama"}},
{"type":"Feature","geometry":{"type":"Point","coordinates":[139.0150,35.7270]},"properties":{"layer":"danger","kind":"attack","title":"人身被害：檜原村・都民の森付近","date":"2026-07-07","summary":"7/7 登山者がクマと遭遇し負傷。周辺で目撃続く","source_url":"https://www.kankyo.metro.tokyo.lg.jp/nature/animals_plants/bear/witness","area":"okutama"}},
{"type":"Feature","geometry":{"type":"Point","coordinates":[139.0960,35.7900]},"properties":{"layer":"danger","kind":"closure","title":"注意喚起：奥多摩町（町長メッセージ）","date":"2026-07-14","summary":"町・都・国による注意喚起。入山前に必読","source_url":"https://www.town.okutama.tokyo.jp/1/kankosangyoka/sangyoshinko/2/1/1079.html","area":"okutama"}},

{"type":"Feature","geometry":{"type":"Point","coordinates":[138.8410,35.9740]},"properties":{"layer":"danger","kind":"official","title":"埼玉県クマ出没情報（公式）","date":"2026-08-22","summary":"県の公式出没マップ入口を開く（秩父一円）","source_url":"https://www.pref.saitama.lg.jp/a0508/tyouzyu/kumatyui.html","area":"chichibu"}},
{"type":"Feature","geometry":{"type":"Point","coordinates":[139.1550,35.9664]},"properties":{"layer":"danger","kind":"sighting","title":"クマ目撃：横瀬町芦ヶ久保（下倉掛）","date":"2026-08-11","summary":"8/11 深夜に目撃。芦ヶ久保周辺で7月から連続","source_url":"https://www.town.yokoze.saitama.jp/anzen/kurashi-anzen/892","area":"chichibu"}},
{"type":"Feature","geometry":{"type":"Point","coordinates":[139.0900,35.9480]},"properties":{"layer":"danger","kind":"sighting","title":"クマ目撃：武甲山〜大持山付近","date":"2026-08-02","summary":"8/2 14時半頃 稜線付近で目撃","source_url":"https://www.town.yokoze.saitama.jp/anzen/kurashi-anzen/892","area":"chichibu"}},
{"type":"Feature","geometry":{"type":"Point","coordinates":[139.1500,35.9600]},"properties":{"layer":"danger","kind":"sighting","title":"クマ目撃：芦ヶ久保東沢","date":"2026-07-31","summary":"7/31 18時頃 東沢地内で目撃","source_url":"https://www.town.yokoze.saitama.jp/anzen/kurashi-anzen/892","area":"chichibu"}},

{"type":"Feature","geometry":{"type":"Point","coordinates":[139.1633,35.4542]},"properties":{"layer":"fun","kind":"hut","title":"尊仏山荘（塔ノ岳山頂）","date":"2026-08-22","summary":"通年営業・要予約。湘南の夜景と富士山の絶景","source_url":"https://sonbutsusanso.amebaownd.com/","area":"tanzawa"}},
{"type":"Feature","geometry":{"type":"Point","coordinates":[139.1620,35.4757]},"properties":{"layer":"fun","kind":"hut","title":"みやま山荘（丹沢山山頂）","date":"2026-08-22","summary":"丹沢山山頂の山小屋。縦走の拠点","source_url":"https://omotan-hadano.jp/","area":"tanzawa"}},
{"type":"Feature","geometry":{"type":"Point","coordinates":[139.1623,35.4137]},"properties":{"layer":"fun","kind":"food","title":"観音茶屋（大倉尾根）","date":"2026-08-22","summary":"大倉尾根の茶屋。登り始めの一服に","source_url":"https://omotan-hadano.jp/","area":"tanzawa"}},
{"type":"Feature","geometry":{"type":"Point","coordinates":[139.1656,35.4284]},"properties":{"layer":"fun","kind":"food","title":"駒止茶屋（大倉尾根）","date":"2026-08-22","summary":"バカ尾根中腹の茶屋","source_url":"https://omotan-hadano.jp/","area":"tanzawa"}},

{"type":"Feature","geometry":{"type":"Point","coordinates":[138.9480,35.8600]},"properties":{"layer":"fun","kind":"hut","title":"雲取山荘（雲取山）","date":"2026-08-22","summary":"通年営業・要予約。東京都最高峰の拠点","source_url":"http://kumotorisansou.com/","area":"okutama"}},
{"type":"Feature","geometry":{"type":"Point","coordinates":[139.2434,35.6251]},"properties":{"layer":"fun","kind":"food","title":"高尾山・茶屋グルメ","date":"2026-08-22","summary":"天狗焼き・とろろそば。ケーブルで気軽に","source_url":"https://www.takaotozan.co.jp/","area":"okutama"}},
{"type":"Feature","geometry":{"type":"Point","coordinates":[139.0150,35.7270]},"properties":{"layer":"fun","kind":"view","title":"檜原都民の森（三頭山）","date":"2026-08-22","summary":"ブナ林と滝。クマ情報は要チェック","source_url":"https://hinohara-kankou.jp/","area":"okutama"}},

{"type":"Feature","geometry":{"type":"Point","coordinates":[138.8690,35.9580]},"properties":{"layer":"fun","kind":"hut","title":"両神山荘（日向大谷登山口）","date":"2026-08-22","summary":"両神山表参道の登山口の宿","source_url":"https://www.town.ogano.lg.jp/","area":"chichibu"}},
{"type":"Feature","geometry":{"type":"Point","coordinates":[139.1550,35.9663]},"properties":{"layer":"fun","kind":"food","title":"道の駅 果樹公園あしがくぼ","date":"2026-08-22","summary":"下山後のご褒美。氷柱の里の直売所","source_url":"https://www.town.yokoze.saitama.jp/","area":"chichibu"}},
{"type":"Feature","geometry":{"type":"Point","coordinates":[139.0977,35.9548]},"properties":{"layer":"fun","kind":"view","title":"武甲山（秩父のシンボル）","date":"2026-08-22","summary":"山頂から秩父市街の大展望","source_url":"https://www.town.yokoze.saitama.jp/","area":"chichibu"}}

]}
